STARLINK-1727
1 46335U 20062L   26092.83335647  .00324939  00000+0  19689-2 0  9993
2 46335  53.0399 216.4594 0009451   2.7234 222.4075 15.76043031  5951
